ONEWEB-0395             
1 50475U 21132G   25050.43735987 -.00000528  00000+0 -15256-2 0  9995
2 50475  87.8865 117.3245 0001652  93.3727 266.7590 13.11417601153710
ONEWEB-0396             
1 50476U 21132H   25050.44111935  .00000009  00000+0 -91608-5 0  9999
2 50476  87.9050  71.4585 0001717  94.7961 265.3367 13.18687554159280
ONEWEB-0397             
1 50477U 21132J   25050.45534255  .00000038  00000+0  63383-4 0  9994
2 50477  87.9049  71.4569 0001828  99.2592 260.8747 13.18683602159264
ONEWEB-0398             
1 50478U 21132K   25050.55775913  .00000502  00000+0  13801-2 0  9998
2 50478  87.8862 117.2701 0002038  88.9613 271.1749 13.11415026153635
ONEWEB-0399             
1 50479U 21132L   25050.23900678  .00000492  00000+0  13518-2 0  9995
2 50479  87.8864 117.3547 0001656 111.6777 248.4527 13.11417554153580
ONEWEB-0400             
1 50480U 21132M   25049.75191003  .00000102  00000+0  22569-3 0  9991
2 50480  87.9045  71.5922 0002000  87.0514 273.0847 13.18687879157894
ONEWEB-0401             
1 50481U 21132N   25049.79459774 -.00000017  00000+0 -75794-4 0  9994
2 50481  87.9045  71.5774 0001911 101.1694 258.9653 13.18686545157905
ONEWEB-0402             
1 50482U 21132P   25049.75981618  .00000074  00000+0  15460-3 0  9992
2 50482  87.9044  71.5819 0001992 112.5308 247.6035 13.18687869157923
